STARLINK-35352          
1 66177U 25243A   25311.03556811 -.00425941  00000+0 -25581-2 0  9993
2 66177  53.1528  99.3626 0001155  61.7530 298.3608 15.78186352  1814
STARLINK-35363          
1 66178U 25243B   25310.90960406 -.00382435  00000+0 -22295-2 0  9997
2 66178  53.1527  99.9989 0001364  47.3205 312.7932 15.78728094  1796
STARLINK-35346          
1 66179U 25243C   25310.90995611  .00107117  00000+0  58551-3 0  9999
2 66179  53.1523 100.0015 0003124  21.1098 339.0052 15.79073734  1793
STARLINK-35335          
1 66180U 25243D   25310.97369184 -.00594844  00000+0 -36025-2 0  9998
2 66180  53.1527  99.6875 0002525  25.9073 334.2074 15.78432269  1809
STARLINK-35342          
1 66181U 25243E   25310.97403085 -.00341081  00000+0 -19895-2 0  9997
2 66181  53.1526  99.6912 0001063  60.9647 299.1481 15.78608591  1807
STARLINK-35333          
1 66182U 25243F   25310.91106088 -.00371052  00000+0 -21637-2 0  9993
2 66182  53.1526 100.0090 0001662  44.1462 315.9692 15.78691350  1790
STARLINK-35310          
1 66183U 25243G   25310.91145118 -.00174530  00000+0 -98433-3 0  9992
2 66183  53.1525 100.0128 0001463  48.4949 311.6198 15.78883354  1799
STARLINK-35317          
1 66184U 25243H   25311.04191166 -.00385186  00000+0 -22544-2 0  9992
2 66184  53.1530  99.4065 0002985  13.7070 346.4032 15.78638341  1817
STARLINK-35377          
1 66185U 25243J   25311.23228093  .01513157  00000+0  68401-2 0  9996
2 66185  53.1511  98.4609 0011233 213.3629 146.6687 15.80560768  1843
STARLINK-35365          
1 66186U 25243K   25311.04338711 -.00516321  00000+0 -30667-2 0  9995
2 66186  53.1530  99.4169 0002883  17.3214 342.7906 15.78655684  1819
STARLINK-35350          
1 66187U 25243L   25311.23300973 -.00218383  00000+0 -12697-2 0  9996
2 66187  53.1525  98.4662 0001811 182.6497 177.4515 15.78337810  1840
