CCSDS_OMM_VERS = 2.0
CREATION_DATE  = 
ORIGINATOR     = 

OBJECT_NAME    = STARLINK-35352
OBJECT_ID      = 2025-243A
CENTER_NAME    = EARTH
REF_FRAME      = TEME
TIME_SYSTEM    = UTC
MEAN_ELEMENT_THEORY = SGP/SGP4

EPOCH          = 2025-11-07T00:51:13.084704
MEAN_MOTION    = 15.78186352
ECCENTRICITY   = .00011553
INCLINATION    = 53.1528
RA_OF_ASC_NODE = 99.3626
ARG_OF_PERICENTER = 61.7530
MEAN_ANOMALY   = 298.3608

EPHEMERIS_TYPE = 0
CLASSIFICATION_TYPE = U
NORAD_CAT_ID   = 66177
ELEMENT_SET_NO = 999
REV_AT_EPOCH   = 181
BSTAR          = -.25581323E-2
MEAN_MOTION_DOT = -.425941E-2
MEAN_MOTION_DDOT = 0

CCSDS_OMM_VERS = 2.0
CREATION_DATE  = 
ORIGINATOR     = 

OBJECT_NAME    = STARLINK-35363
OBJECT_ID      = 2025-243B
CENTER_NAME    = EARTH
REF_FRAME      = TEME
TIME_SYSTEM    = UTC
MEAN_ELEMENT_THEORY = SGP/SGP4

EPOCH          = 2025-11-06T21:49:49.790784
MEAN_MOTION    = 15.78728094
ECCENTRICITY   = .0001364
INCLINATION    = 53.1527
RA_OF_ASC_NODE = 99.9989
ARG_OF_PERICENTER = 47.3205
MEAN_ANOMALY   = 312.7932

EPHEMERIS_TYPE = 0
CLASSIFICATION_TYPE = U
NORAD_CAT_ID   = 66178
ELEMENT_SET_NO = 999
REV_AT_EPOCH   = 179
BSTAR          = -.22295E-2
MEAN_MOTION_DOT = -.382435E-2
MEAN_MOTION_DDOT = 0

CCSDS_OMM_VERS = 2.0
CREATION_DATE  = 
ORIGINATOR     = 

OBJECT_NAME    = STARLINK-35346
OBJECT_ID      = 2025-243C
CENTER_NAME    = EARTH
REF_FRAME      = TEME
TIME_SYSTEM    = UTC
MEAN_ELEMENT_THEORY = SGP/SGP4

EPOCH          = 2025-11-06T21:50:20.207904
MEAN_MOTION    = 15.79073734
ECCENTRICITY   = .0003124
INCLINATION    = 53.1523
RA_OF_ASC_NODE = 100.0015
ARG_OF_PERICENTER = 21.1098
MEAN_ANOMALY   = 339.0052

EPHEMERIS_TYPE = 0
CLASSIFICATION_TYPE = U
NORAD_CAT_ID   = 66179
ELEMENT_SET_NO = 999
REV_AT_EPOCH   = 179
BSTAR          = .58551E-3
MEAN_MOTION_DOT = .107117E-2
MEAN_MOTION_DDOT = 0

CCSDS_OMM_VERS = 2.0
CREATION_DATE  = 
ORIGINATOR     = 

OBJECT_NAME    = STARLINK-35335
OBJECT_ID      = 2025-243D
CENTER_NAME    = EARTH
REF_FRAME      = TEME
TIME_SYSTEM    = UTC
MEAN_ELEMENT_THEORY = SGP/SGP4

EPOCH          = 2025-11-06T23:22:06.974976
MEAN_MOTION    = 15.78432269
ECCENTRICITY   = .0002525
INCLINATION    = 53.1527
RA_OF_ASC_NODE = 99.6875
ARG_OF_PERICENTER = 25.9073
MEAN_ANOMALY   = 334.2074

EPHEMERIS_TYPE = 0
CLASSIFICATION_TYPE = U
NORAD_CAT_ID   = 66180
ELEMENT_SET_NO = 999
REV_AT_EPOCH   = 180
BSTAR          = -.36024544E-2
MEAN_MOTION_DOT = -.594844E-2
MEAN_MOTION_DDOT = 0

CCSDS_OMM_VERS = 2.0
CREATION_DATE  = 
ORIGINATOR     = 

OBJECT_NAME    = STARLINK-35342
OBJECT_ID      = 2025-243E
CENTER_NAME    = EARTH
REF_FRAME      = TEME
TIME_SYSTEM    = UTC
MEAN_ELEMENT_THEORY = SGP/SGP4

EPOCH          = 2025-11-06T23:22:36.265440
MEAN_MOTION    = 15.78608591
ECCENTRICITY   = .00010638
INCLINATION    = 53.1526
RA_OF_ASC_NODE = 99.6912
ARG_OF_PERICENTER = 60.9647
MEAN_ANOMALY   = 299.1481

EPHEMERIS_TYPE = 0
CLASSIFICATION_TYPE = U
NORAD_CAT_ID   = 66181
ELEMENT_SET_NO = 999
REV_AT_EPOCH   = 180
BSTAR          = -.19894554E-2
MEAN_MOTION_DOT = -.341081E-2
MEAN_MOTION_DDOT = 0

CCSDS_OMM_VERS = 2.0
CREATION_DATE  = 
ORIGINATOR     = 

OBJECT_NAME    = STARLINK-35333
OBJECT_ID      = 2025-243F
CENTER_NAME    = EARTH
REF_FRAME      = TEME
TIME_SYSTEM    = UTC
MEAN_ELEMENT_THEORY = SGP/SGP4

EPOCH          = 2025-11-06T21:51:55.660032
MEAN_MOTION    = 15.78691350
ECCENTRICITY   = .0001662
INCLINATION    = 53.1526
RA_OF_ASC_NODE = 100.0090
ARG_OF_PERICENTER = 44.1462
MEAN_ANOMALY   = 315.9692

EPHEMERIS_TYPE = 0
CLASSIFICATION_TYPE = U
NORAD_CAT_ID   = 66182
ELEMENT_SET_NO = 999
REV_AT_EPOCH   = 179
BSTAR          = -.21637E-2
MEAN_MOTION_DOT = -.371052E-2
MEAN_MOTION_DDOT = 0

CCSDS_OMM_VERS = 2.0
CREATION_DATE  = 
ORIGINATOR     = 

OBJECT_NAME    = STARLINK-35310
OBJECT_ID      = 2025-243G
CENTER_NAME    = EARTH
REF_FRAME      = TEME
TIME_SYSTEM    = UTC
MEAN_ELEMENT_THEORY = SGP/SGP4

EPOCH          = 2025-11-06T21:52:29.381952
MEAN_MOTION    = 15.78883354
ECCENTRICITY   = .0001463
INCLINATION    = 53.1525
RA_OF_ASC_NODE = 100.0128
ARG_OF_PERICENTER = 48.4949
MEAN_ANOMALY   = 311.6198

EPHEMERIS_TYPE = 0
CLASSIFICATION_TYPE = U
NORAD_CAT_ID   = 66183
ELEMENT_SET_NO = 999
REV_AT_EPOCH   = 179
BSTAR          = -.98433E-3
MEAN_MOTION_DOT = -.17453E-2
MEAN_MOTION_DDOT = 0

CCSDS_OMM_VERS = 2.0
CREATION_DATE  = 
ORIGINATOR     = 

OBJECT_NAME    = STARLINK-35317
OBJECT_ID      = 2025-243H
CENTER_NAME    = EARTH
REF_FRAME      = TEME
TIME_SYSTEM    = UTC
MEAN_ELEMENT_THEORY = SGP/SGP4

EPOCH          = 2025-11-07T01:00:21.167424
MEAN_MOTION    = 15.78638341
ECCENTRICITY   = .00029853
INCLINATION    = 53.1530
RA_OF_ASC_NODE = 99.4065
ARG_OF_PERICENTER = 13.7070
MEAN_ANOMALY   = 346.4032

EPHEMERIS_TYPE = 0
CLASSIFICATION_TYPE = U
NORAD_CAT_ID   = 66184
ELEMENT_SET_NO = 999
REV_AT_EPOCH   = 181
BSTAR          = -.22543836E-2
MEAN_MOTION_DOT = -.385186E-2
MEAN_MOTION_DDOT = 0

CCSDS_OMM_VERS = 2.0
CREATION_DATE  = 
ORIGINATOR     = 

OBJECT_NAME    = STARLINK-35377
OBJECT_ID      = 2025-243J
CENTER_NAME    = EARTH
REF_FRAME      = TEME
TIME_SYSTEM    = UTC
MEAN_ELEMENT_THEORY = SGP/SGP4

EPOCH          = 2025-11-07T05:34:29.072352
MEAN_MOTION    = 15.80560768
ECCENTRICITY   = .00112335
INCLINATION    = 53.1511
RA_OF_ASC_NODE = 98.4609
ARG_OF_PERICENTER = 213.3629
MEAN_ANOMALY   = 146.6687

EPHEMERIS_TYPE = 0
CLASSIFICATION_TYPE = U
NORAD_CAT_ID   = 66185
ELEMENT_SET_NO = 999
REV_AT_EPOCH   = 184
BSTAR          = .68401216E-2
MEAN_MOTION_DOT = .1513157E-1
MEAN_MOTION_DDOT = 0

CCSDS_OMM_VERS = 2.0
CREATION_DATE  = 
ORIGINATOR     = 

OBJECT_NAME    = STARLINK-35365
OBJECT_ID      = 2025-243K
CENTER_NAME    = EARTH
REF_FRAME      = TEME
TIME_SYSTEM    = UTC
MEAN_ELEMENT_THEORY = SGP/SGP4

EPOCH          = 2025-11-07T01:02:28.646304
MEAN_MOTION    = 15.78655684
ECCENTRICITY   = .00028836
INCLINATION    = 53.1530
RA_OF_ASC_NODE = 99.4169
ARG_OF_PERICENTER = 17.3214
MEAN_ANOMALY   = 342.7906

EPHEMERIS_TYPE = 0
CLASSIFICATION_TYPE = U
NORAD_CAT_ID   = 66186
ELEMENT_SET_NO = 999
REV_AT_EPOCH   = 181
BSTAR          = -.30666533E-2
MEAN_MOTION_DOT = -.516321E-2
MEAN_MOTION_DDOT = 0

CCSDS_OMM_VERS = 2.0
CREATION_DATE  = 
ORIGINATOR     = 

OBJECT_NAME    = STARLINK-35350
OBJECT_ID      = 2025-243L
CENTER_NAME    = EARTH
REF_FRAME      = TEME
TIME_SYSTEM    = UTC
MEAN_ELEMENT_THEORY = SGP/SGP4

EPOCH          = 2025-11-07T05:35:32.040672
MEAN_MOTION    = 15.78337810
ECCENTRICITY   = .00018113
INCLINATION    = 53.1525
RA_OF_ASC_NODE = 98.4662
ARG_OF_PERICENTER = 182.6497
MEAN_ANOMALY   = 177.4515

EPHEMERIS_TYPE = 0
CLASSIFICATION_TYPE = U
NORAD_CAT_ID   = 66187
ELEMENT_SET_NO = 999
REV_AT_EPOCH   = 184
BSTAR          = -.12697436E-2
MEAN_MOTION_DOT = -.218383E-2
MEAN_MOTION_DDOT = 0

